QIANFAN-9               
1 60387U 24140J   25247.88223860  .00000111  00000+0  15334-3 0  9993
2 60387  88.9814 309.5702 0018392 121.0024 239.2937 13.50968332 53983
QIANFAN-10              
1 60388U 24140K   25247.88632587  .00000115  00000+0  15938-3 0  9998
2 60388  88.9822 308.9080 0016997 101.0837 259.2227 13.50965855 54111
QIANFAN-11              
1 60389U 24140L   25247.84924696  .00000105  00000+0  14383-3 0  9992
2 60389  88.9750 309.5723 0016423 120.4913 239.7863 13.50966226 53769
QIANFAN-12              
1 60390U 24140M   25247.86976461  .00000127  00000+0  17747-3 0  9994
2 60390  88.9793 309.5703 0015147 127.3544 232.8989 13.50966146 53892
QIANFAN-13              
1 60391U 24140N   25247.84098084  .00000115  00000+0  15947-3 0  9996
2 60391  88.9806 309.6610 0014917 129.6948 230.5521 13.50966187 53918
QIANFAN-14              
1 60392U 24140P   25247.86560650  .00000118  00000+0  16385-3 0  9992
2 60392  88.9784 309.5772 0018602 130.4430 229.8347 13.50967189 53924
QIANFAN-15              
1 60393U 24140Q   25247.87393883  .00000118  00000+0  16407-3 0  9991
2 60393  88.9808 309.5095 0014586 117.6029 242.6605 13.50970643 53916
QIANFAN-16              
1 60394U 24140R   25247.86161243  .00000108  00000+0  14881-3 0  9997
2 60394  88.9811 309.6278 0016450 133.4461 226.8062 13.50966246 53828
